[{"OBJECT_NAME":"IRIDIUM 141","OBJECT_ID":"2017-083H","EPOCH":"2026-03-09T20:26:47.196096","MEAN_MOTION":14.34219969,"ECCENTRICITY":0.00021763,"INCLINATION":86.4016,"RA_OF_ASC_NODE":3.5025,"ARG_OF_PERICENTER":80.8622,"MEAN_ANOMALY":279.282,"EPHEMERIS_TYPE":0,"CLASSIFICATION_TYPE":"U","NORAD_CAT_ID":43077,"ELEMENT_SET_NO":999,"REV_AT_EPOCH":42993,"BSTAR":0.00010189032,"MEAN_MOTION_DOT":3.05e-6,"MEAN_MOTION_DDOT":0},{"OBJECT_NAME":"COSMOS 1680","OBJECT_ID":"1985-079A","EPOCH":"2026-03-09T15:39:49.865472","MEAN_MOTION":14.34132536,"ECCENTRICITY":0.00154059,"INCLINATION":74.0541,"RA_OF_ASC_NODE":146.795,"ARG_OF_PERICENTER":340.7467,"MEAN_ANOMALY":19.3101,"EPHEMERIS_TYPE":0,"CLASSIFICATION_TYPE":"U","NORAD_CAT_ID":16011,"ELEMENT_SET_NO":999,"REV_AT_EPOCH":11753,"BSTAR":6.7390441e-5,"MEAN_MOTION_DOT":1.63e-6,"MEAN_MOTION_DDOT":0}]
